#dP2025  9 18  0  0  0.00000000     289 d+D   IGb20 FIT AIUB
## 2384 345600.00000000   300.00000000 60936 0.0000000000000
+  122   G01G02G03G04G05G06G07G08G09G10G11G12G13G14G15G16G17
+        G18G19G21G22G23G24G25G26G27G28G29G30G31G32R02R03R04
+        R05R07R08R09R11R12R14R15R16R17R18R19R20R21R22R24R25
+        R26R27E02E03E04E05E06E07E08E09E10E11E12E13E14E15E16
+        E18E19E21E23E24E25E26E27E29E30E31E33E34E36C06C07C08
+        C09C10C11C12C13C14C16C19C20C21C22C23C24C25C26C27C28
+        C29C30C32C33C34C35C36C37C38C39C40C41C42C43C44C45C48
+        J02J03J04  0  0  0  0  0  0  0  0  0  0  0  0  0  0
++         5  5  5  5  5  5  5  5  5  5  5  5  5  5  5  5  5
++         5  5  5  5  5  5  5  5  5  5  5  5  5  5  5  5  5
++         5  5  5  5  5  5  5  5  5  5  5  5  5  5  5  5  6
++         5  5  5  5  5  5  5  5  5  5  5  5  5  5  5  5  5
++         5  5  5  5  5  5  5  5  5  5  5  5  5  5  5  5  5
++         6  5  5  5  5  5  5  5  5  5  5  5  5  5  5  5  5
++         5  5  5  5  5  5  5  5  5  5  5  5  5  5  5  5  5
++         5  5  6  0  0  0  0  0  0  0  0  0  0  0  0  0  0
%c M  cc GPS ccc cccc cccc cccc cccc ccccc ccccc ccccc ccccc
%c cc cc ccc ccc cccc cccc cccc cccc ccccc ccccc ccccc ccccc
%f  1.2500000  1.025000000  0.00000000000  0.000000000000000
%f  0.0000000  0.000000000  0.00000000000  0.000000000000000
%i    0    0    0    0      0      0      0      0         0
%i    0    0    0    0      0      0      0      0         0
/* Center for Orbit Determination in Europe (CODE)                              
/* MGEX orbits and clocks for year-day 2025-2610                                
/* Middle day of a 3-day long-arc multi-GNSS solution                           
/* Systems considered: GPS/GLONASS/Galileo/BeiDou/QZSS                          
/* Product reference - DOI 10.48350/197028                                      
/* PCV:IGS20      OL/AL:FES2014b NONE     YN ORB:CoN CLK:CoN                    
*  2025  9 18 18  0  0.00000000
PG01 -15140.643420   2092.458960  21723.149625    346.963336
PG02 -17474.153233  -9328.394709  18347.414093    -70.621161
PG03 -20867.486405   9384.544868  13208.646034    673.739423
PG04 -25277.476115   -863.336708  -8355.311192      8.293934
PG05  14868.671754   4988.650223 -21620.848374   -219.802503
PG06   4447.292164  25797.990835   4128.850796   -524.969517
PG07  -8173.445074  17002.828093 -17943.652537    -77.872089
PG08 -26061.663290  -6097.343330  -1757.551172    530.989960
PG09 -17609.721618   9087.514383 -17821.549029    742.222000
PG10   7047.025953 -21161.934933  14394.076215   -530.415921
PG11  11922.846863  22108.443381  -8700.901179   -611.216433
PG12  21263.211377  -6049.217558  14421.871988   -599.136669
PG13  21619.169145  13900.977469  -7466.978034    698.271162
PG14  -9100.044967  21840.360859  11858.726434    696.860031
PG15  26381.378967   3097.362961  -2067.659003    339.471034
PG16 -12889.690255  -8987.556614 -21817.709918    106.516452
PG17  -3234.083886  15070.081883  22020.637786    102.160896
PG18   7217.113396 -18374.335976 -17597.269292   -550.076397
PG19   6529.561991  16730.539010  19632.893413    662.836381
PG21   6137.227810  14878.881392 -21128.417045    244.023935
PG22  -4561.939826  20244.917556  17112.739639    -91.600536
PG23  17139.422989 -20087.815025    814.399343    544.630069
PG24  17361.062431   4652.816209  19162.189861   -297.980646
PG25  20192.111098 -15548.922580   6618.201709    471.133522
PG26  -2728.430525 -19006.892774 -18393.995100   -262.931821
PG27 -20659.243807 -12815.532057 -11521.780662    -25.435910
PG28  -3821.146241 -25461.466057   6481.622112   -638.504873
PG29  19998.575582  -5854.348734 -16592.359758   -453.186037
PG30   -927.814094  23959.570424 -10956.146128    -31.366172
PG31  -9996.531391 -24061.972538  -4390.430086   -191.508223
PG32   -630.750323 -15560.457682  21782.247093   -320.046738
PR02 -15644.135693  -7322.057270  18839.077473    -23.514645
PR03 -25366.268658   1289.092530   2752.029377    129.865250
PR04 -20098.828664   7988.771772 -13518.594342    311.706769
PR05  -4306.442382  10798.486462 -22704.281162    156.220254
PR07  25287.257482  -1208.175636  -2835.913770    112.246953
PR08  19715.434729  -8422.662597  13841.358404     -3.707504
PR09   5494.258729  13839.965708  20708.560252    279.229249
PR11  13917.208434 -17936.955191  11663.109513      7.872158
PR12   6568.056862 -23511.373186  -7357.889156     59.330847
PR14 -12897.493295   3247.251001 -21746.851295     29.747222
PR15 -13781.075083  18786.145047 -10350.746609     64.010641
PR16  -6548.788928  23479.796500   7461.556071     39.835865
PR17 -15913.801591  -7668.428386  18388.828035    227.838223
PR18  -7831.378393   7278.936884  23177.124762    222.974237
PR19   4467.175210  19922.689527  15330.145875    -19.603269
PR20  14483.796218  20875.611015  -2083.311004   -136.749533
PR21  16382.369430  10047.351799 -16790.956261   -238.176939
PR22   7285.270722  -8710.971178 -22812.122273     86.057408
PR24 -15822.673550 -19830.262297   2525.905064   -123.214041
PR25   2108.197643  18130.200934  17831.365598 999999.999999
PR26  21482.646822  -7629.463558  11474.840040    -96.027983
PR27  14513.498699   7705.694802 -19499.501005   -100.396349
PE02  15729.058330 -22478.966332 -11092.322918    250.749739
PE03   7570.472827 -15107.032891  24289.737765   -217.380234
PE04  14259.984365  18713.437544 -17968.655529   -343.729374
PE05  24584.846564  -2707.645935  16261.516396   4885.412092
PE06  22500.845739  16278.390294 -10260.316660   -169.762365
PE07 -27249.844566 -11443.127889   1486.923852   -206.640277
PE08 -13857.254986 -18674.299708  18295.106419   -537.100956
PE09  27235.476072  11518.429418  -1532.960232    -17.233472
PE10  12731.256182  22672.398775 -14158.692143   -737.983699
PE11  15943.266857  12935.724876 -21328.764456   1526.801765
PE12   8113.999612  27848.384499  -5882.124406     -1.586324
PE13 -15789.972199 -13471.984690  21109.078857    -40.149431
PE14 -22184.898906  -7620.439539  -1498.833786   1370.501993
PE15  -7700.950522 -28101.169329   5216.846932   -200.973472
PE16  24438.549622  -5862.541132  15656.476071    -63.540638
PE18  31749.949542   6166.779531  -3726.670189   1905.195578
PE19  -9022.503169  14318.622600 -24285.559438   2254.613188
PE21 -25177.614126  13718.839589  -7350.945907   -690.574143
PE23 -15531.699174  22584.579627  11165.285314    -10.322785
PE24  20005.154553   3278.215972  21551.309444   -183.873055
PE25  25239.322730 -13327.421776   7844.334674     20.475790
PE26 -14531.578580   9068.439159  24150.616071     79.751627
PE27 -19818.498708  -3443.430116 -21712.359192   -773.856217
PE29 -24492.291888   2966.897471 -16371.396387   -133.485820
PE30  -3296.828304 -18132.331538 -23165.713105   -208.936253
PE31   2839.697063  18342.300513  23068.998417    -88.378439
PE33  -4968.598263  25767.260335  13715.597426      8.206840
PE34   4747.240625 -25914.029292 -13476.013148   -206.015200
PE36  14488.814076  -8636.418256 -24318.437649   -453.739978
PC06  -2599.400673  39030.414848 -15219.260132    901.377157
PC07  -9995.246480  26885.982039  31031.409236    199.498707
PC08 -19496.940430  33030.405081 -17828.478256   -883.577789
PC09   1972.676328  41047.392225  -7018.943525   -126.845474
PC10  -1807.371012  28324.232440  31608.796205   -193.520322
PC11 -20210.143993 -19143.366979   1983.629741    137.355508
PC12  -7657.085725 -22233.968394 -14978.786309    466.319749
PC13 -13709.719151  33405.120716 -21820.002706   -130.960971
PC14 -18947.414861  -7730.983438  18940.709908   -326.360122
PC16  -5604.783711  36690.363400 -19238.045497   -804.268666
PC19  25055.045153   1348.554909 -12234.397622   -941.091861
PC20  11777.371600  12031.922096 -22266.767177   -873.277609
PC21  10469.722171 -16634.563621  19818.843419   -966.680269
PC22  25099.419954 -10891.498552   5535.981465    388.075292
PC23 -16378.344065  14650.464347 -17203.223449   -605.866984
PC24  -4863.745304 -23508.741421 -14219.869912    274.012007
PC25 -15571.764567  -5078.208994 -22606.255809    855.055518
PC26   6921.825463 -26980.011137   1336.734470   -524.053122
PC27  -1585.520821  18789.581734  20555.051659    531.504120
PC28 -15186.598733   7344.603289  22237.238465    425.534222
PC29  23437.888045  12098.445643  -9123.949259    497.875405
PC30  15827.769216  21589.590453   7850.627607    277.714594
PC32 -10441.722609  16718.916119 -19745.818750   -951.592774
PC33 -24994.685241  -1265.972350  12317.239235   -973.570300
PC34 -16218.369779 -21500.412636  -7343.667920    780.699608
PC35  15976.917164  -6783.104829 -21861.233531    -94.399567
PC36  15424.750293   5556.281431  22603.173082    310.285349
PC37  -8313.840892  26538.288698  -2513.395685   -886.318842
PC38 -23969.335992  33746.082995  -8396.622848    247.987252
PC39  -6853.059135  34132.451425 -23518.914503    -13.950367
PC40 -15222.880339  20052.234321  33812.199212   -169.988833
PC41 -25516.864192  10372.470816  -4357.360331   -962.335935
PC42  -9426.681078 -13105.917468  22786.137262   -909.400126
PC43 -23529.341967 -11292.922658   9887.689114    120.517165
PC44   1004.457544 -18905.979681 -20522.758498    944.391105
PC45  16520.092055 -13799.859109  17739.792380   -471.522677
PC48  18538.575593   8276.047888 -19149.413139    741.324787
PJ02 -31268.924495  27485.342456  12203.267029     -4.004407
PJ03 -26637.728271  25026.557395  26178.506456     -1.398249
PJ04 -32184.237635  20194.524016 -13339.985583     -0.611741
EOF
